[{"OBJECT_NAME":"STARLINK-30165","OBJECT_ID":"2023-107A","EPOCH":"2026-03-09T03:47:33.839520","MEAN_MOTION":15.26736421,"ECCENTRICITY":0.00014984,"INCLINATION":42.9999,"RA_OF_ASC_NODE":339.2931,"ARG_OF_PERICENTER":275.8397,"MEAN_ANOMALY":84.2284,"EPHEMERIS_TYPE":0,"CLASSIFICATION_TYPE":"U","NORAD_CAT_ID":57457,"ELEMENT_SET_NO":999,"REV_AT_EPOCH":14505,"BSTAR":7.0020691e-5,"MEAN_MOTION_DOT":1.619e-5,"MEAN_MOTION_DDOT":0},{"OBJECT_NAME":"SL-3 R\/B","OBJECT_ID":"1983-003B","EPOCH":"2026-03-09T21:31:00.897888","MEAN_MOTION":15.34640469,"ECCENTRICITY":0.00285789,"INCLINATION":81.155,"RA_OF_ASC_NODE":261.9078,"ARG_OF_PERICENTER":155.4571,"MEAN_ANOMALY":204.8036,"EPHEMERIS_TYPE":0,"CLASSIFICATION_TYPE":"U","NORAD_CAT_ID":13771,"ELEMENT_SET_NO":999,"REV_AT_EPOCH":35642,"BSTAR":0.00033440366,"MEAN_MOTION_DOT":0.00011405,"MEAN_MOTION_DDOT":0}]
